[{"OBJECT_NAME":"STARLINK-31448","OBJECT_ID":"2024-080L","EPOCH":"2026-03-09T07:21:30.632256","MEAN_MOTION":15.27580783,"ECCENTRICITY":0.00014735,"INCLINATION":43.0048,"RA_OF_ASC_NODE":36.646,"ARG_OF_PERICENTER":247.8128,"MEAN_ANOMALY":112.2567,"EPHEMERIS_TYPE":0,"CLASSIFICATION_TYPE":"U","NORAD_CAT_ID":59611,"ELEMENT_SET_NO":999,"REV_AT_EPOCH":10451,"BSTAR":5.521944e-6,"MEAN_MOTION_DOT":-1.1e-6,"MEAN_MOTION_DDOT":0},{"OBJECT_NAME":"COSMOS 1461","OBJECT_ID":"1983-044A","EPOCH":"2026-03-09T23:27:40.254336","MEAN_MOTION":15.35034079,"ECCENTRICITY":0.00529955,"INCLINATION":64.9902,"RA_OF_ASC_NODE":19.3405,"ARG_OF_PERICENTER":227.9657,"MEAN_ANOMALY":131.6963,"EPHEMERIS_TYPE":0,"CLASSIFICATION_TYPE":"U","NORAD_CAT_ID":14064,"ELEMENT_SET_NO":999,"REV_AT_EPOCH":20189,"BSTAR":0.00068784348,"MEAN_MOTION_DOT":0.00024451,"MEAN_MOTION_DDOT":0}]
